HISPASAT 30W-6          
1 43228U 18023A   20271.36941706 -.00000239  00000-0  00000+0 0  9995
2 43228   0.0494  22.5764 0003115 125.7009 321.3498  1.00271542  9559
SUPERBIRD 8             
1 43271U 18033A   20271.47861399 -.00000115  00000-0  00000-0 0  9999
2 43271   0.0142 150.1112 0001608  23.0632 167.8493  1.00271820  9107
HYLAS 4                 
1 43272U 18033B   20270.99007979 -.00000256  00000-0  00000-0 0  9998
2 43272   0.0610 123.9512 0004705  50.5173 154.6887  1.00273446  9136
IRNSS-1I                
1 43286U 18035A   20270.63630905  .00000089  00000-0  00000+0 0  9999
2 43286  28.5424 107.7333 0020297 179.0268   3.3363  1.00273100  9110
USA 283                 
1 43339U 18036A   20271.55673503 -.00000340  00000-0  00000+0 0  9993
2 43339   0.0189   1.4483 0000090 173.1496 166.7297  1.00271478  4363
COSMOS 2526             
1 43432U 18037A   20271.51715852 -.00000367  00000-0  00000-0 0  9998
2 43432   0.0185 126.5800 0000617 102.4709  91.9551  1.00274632  9027
APSTAR 6C               
1 43450U 18041A   20270.93919205 -.00000341  00000-0  00000+0 0  9997
2 43450   0.0141 236.2880 0002725 227.3799  14.6485  1.00270499  8893
BANGABANDHUSAT-1        
1 43463U 18044A   20271.43867383 -.00000385  00000-0  00000-0 0  9998
2 43463   0.0164 214.5518 0002089 330.1369  99.0261  1.00271240  8768
SES-12                  
1 43488U 18049A   20271.36208078 -.00000293  00000-0  00000-0 0  9990
2 43488   0.0384  73.4188 0001977 156.7620   1.7834  1.00272923  8485
FENGYUN 2H              
1 43491U 18050A   20270.90118692 -.00000152  00000-0  00000-0 0  9991
2 43491   0.4240 269.6604 0003185 242.2542 257.8530  1.00271377  8561
BEIDOU IGSO-7           
1 43539U 18057A   20271.45891873 -.00000182  00000-0  00000-0 0  9994
2 43539  55.0486 181.3312 0031962 216.5840 246.7643  1.00294511  8216
TELSTAR 19V             
1 43562U 18059A   20271.41589240 -.00000303  00000-0  00000+0 0  9994
2 43562   0.0095 176.6728 0003262   7.1282 269.5855  1.00279046  8227
TELKOM 4 (MERAH PUTIH)  
1 43587U 18064A   20271.52827296 -.00000367  00000-0  00000-0 0  9996
2 43587   0.0159 148.1345 0001518  43.2141 113.6054  1.00271574  7925
TELSTAR 18V (APSTAR 5C) 
1 43611U 18069A   20271.51422007 -.00000317  00000-0  00000-0 0  9994
2 43611   0.0250 175.3451 0002315   7.1767 147.3599  1.00269618  7681
AZERSPACE 2 (IS-38)     
1 43632U 18074A   20271.41021653  .00000114  00000-0  00000-0 0  9998
2 43632   0.0248 176.6251 0001637   6.9646  15.8390  1.00268470  7551
HORIZONS 3E             
1 43633U 18074B   20271.48385456 -.00000053  00000-0  00000-0 0  9993
2 43633   0.0042 275.0768 0000252  16.2641  58.5916  1.00272041  7391
AEHF-4 (USA 288)        
1 43651U 18079A   20271.51080806  .00000103  00000-0  00000-0 0  9998
2 43651   3.6711 311.3339 0005717 212.0171 237.2992  1.00277577  7351
BEIDOU-3 G1             
1 43683U 18085A   20271.55396671 -.00000303  00000-0  00000-0 0  9997
2 43683   1.5534 250.2924 0004229 345.4410 110.4988  1.00275216  7121
GSAT-29                 
1 43698U 18089A   20271.40465959  .00000062  00000-0  00000-0 0  9998
2 43698   0.0377 113.2231 0001701  74.5253  19.6067  1.00275206  6847
ES'HAIL 2               
1 43700U 18090A   20271.34216124  .00000121  00000-0  00000+0 0  9990
2 43700   0.0219 171.6996 0001908  28.8181 315.0380  1.00269511  6970
GEO-KOMPSAT-2A          
1 43823U 18100A   20271.48104774 -.00000366  00000-0  00000+0 0  9992
2 43823   0.0432   8.0788 0001812 120.4893 179.6070  1.00271753  6711
GSAT-11                 
1 43824U 18100B   20271.50148365 -.00000100  00000-0  00000-0 0  9997
2 43824   0.0366 249.3487 0007491 240.3668 131.5442  1.00272129  6577
GSAT-7A                 
1 43864U 18105A   20271.40465959  .00000004  00000-0  00000-0 0  9998
2 43864   0.0426  97.7163 0002241  88.1552  29.2424  1.00270293  6520
COSMOS 2533             
1 43867U 18107A   20271.73660591 -.00000061  00000-0  00000+0 0  9991
2 43867   0.0202 125.0756 0000582 353.7354 223.3346  1.00272123  6484
TJS-3                   
1 43874U 18110A   20271.69330865 -.00000376  00000-0  00000+0 0  9995
2 43874   0.0994 290.8350 0000235 341.4927  94.9851  1.00274340  6549
TJS-3 AKM               
1 43917U 18110C   20271.64202059  .00000035  00000-0  00000+0 0  9992
2 43917   0.1464 116.8885 0002906  46.9040 133.1659  1.00271531  6394
CHINASAT 2D (ZX 2D)     
1 43920U 19001A   20271.36905963 -.00000360  00000-0  00000-0 0  9992
2 43920   0.0112  14.2356 0001697  58.1239 197.1156  1.00269846 33132
HELLAS-SAT 4 & SGS-1    
1 44034U 19007A   20270.72132575  .00000129  00000-0  00000-0 0  9997
2 44034   0.0697 128.5005 0006282  33.8829 142.2686  1.00270802  6400
GSAT-31                 
1 44035U 19007B   20271.41021653  .00000102  00000-0  00000-0 0  9990
2 44035   0.0506  95.3120 0003836 126.9414 339.9534  1.00271700  6039
NUSANTARA SATU          
1 44048U 19009A   20271.46901483 -.00000258  00000-0  00000-0 0  9992
2 44048   0.0245 160.2196 0002118  21.0415 140.3002  1.00268602  5812
CHINASAT 6C (ZX 6C)     
1 44067U 19012A   20271.33997052 -.00000360  00000-0  00000-0 0  9994
2 44067   0.0348 225.0162 0002866  15.0709  18.8897  1.00270889  5797
WGS 10 (USA 291)        
1 44071U 19014A   20271.34216124  .00000116  00000-0  00000+0 0  9993
2 44071   0.0689  98.2783 0000599  55.9846 359.5452  1.00271585  5667
TIANLIAN 2-01           
1 44076U 19017A   20271.03660394 -.00000161  00000-0  00000-0 0  9991
2 44076   1.7723 285.2925 0034302 218.3643 315.7712  1.00269593  5663
ARABSAT-6A              
1 44186U 19021A   20271.34841288  .00000131  00000-0  00000+0 0  9990
2 44186   0.0554 350.2990 0005800 237.8525 294.3960  1.00274531  5249
BEIDOU-3 IGSO-1         
1 44204U 19023A   20270.85521715 -.00000188  00000-0  10000-3 0  9996
2 44204  55.6441  59.7979 0018803 179.6177 187.3905  1.00263469  5419
BEIDOU-2 G8             
1 44231U 19027A   20271.43531249 -.00000270  00000-0  00000-0 0  9996
2 44231   0.7602 300.9408 0007964 265.8117 101.1649  1.00274945  5145
YAMAL 601               
1 44307U 19031A   20269.88515942  .00000097  00000-0  00000-0 0  9999
2 44307   0.0178 205.1593 0001898 329.3219 198.3365  1.00270074  4972
AT&T T-16               
1 44333U 19034A   20271.15950799 -.00000138  00000-0  00000-0 0  9994
2 44333   0.0149 242.4746 0000735 199.8010 240.7095  1.00272820  4693
EUTELSAT 7C             
1 44334U 19034B   20271.34771521  .00000025  00000-0  00000+0 0  9993
2 44334   0.0093 211.7014 0003220 317.8097 329.2493  1.00270159  5181
BEIDOU-3 IGSO-2         
1 44337U 19035A   20271.55723197 -.00000167  00000-0  00000-0 0  9995
2 44337  55.0737 177.3760 0014159 183.5460 313.2914  1.00260161  4754
COSMOS 2539             
1 44457U 19048A   20271.27688149  .00000058  00000-0  00000-0 0  9996
2 44457   0.0172 131.5922 0000651 118.0098 228.5880  1.00271316  4264
EDRS-C                  
1 44475U 19049A   20270.89620376  .00000131  00000-0  00000-0 0  9994
2 44475   0.0475 276.3954 0000912 272.9251 170.6840  1.00269068  4257
INTELSAT 39 (IS-39)     
1 44476U 19049B   20271.40465959  .00000010  00000-0  00000-0 0  9993
2 44476   0.0105 238.7342 0000798 146.7094 188.8246  1.00271310  4216
AMOS-17                 
1 44479U 19050A   20271.34216124  .00000086  00000-0  00000-0 0  9992
2 44479   0.0185 258.4333 0002113 278.7716 329.5646  1.00271630  4253
AEHF-5 (USA 292)        
1 44481U 19051A   20271.20049243  .00000057  00000-0  00000-0 0  9995
2 44481   5.7603 307.6129 0003431 236.6616 308.7872  1.00272124  4326
EUTELSAT 5 WEST B       
1 44624U 19067A   20271.32173399 -.00000065  00000-0  00000-0 0  9994
2 44624   0.0622   1.3933 0005204 142.7970 333.1967  1.00272730  3515
TJS-4                   
1 44637U 19070A   20271.50340285 -.00000193  00000-0  00000-0 0  9994
2 44637   0.0433 321.1291 0005446  37.9625 272.3726  1.00272086  3622
BEIDOU-3 IGSO-3         
1 44709U 19073A   20271.52827296 -.00000127  00000-0  10000-3 0  9992
2 44709  58.2433 302.8597 0025269 192.4538 166.2472  1.00255218  3501
TIBA-1                  
1 44800U 19080A   20271.34841288  .00000133  00000-0  00000-0 0  9991
2 44800   0.0615   4.4148 0001889 166.9816 356.1302  1.00270392  3124
INMARSAT GX5            
1 44801U 19080B   20271.34771521  .00000052  00000-0  00000+0 0  9993
2 44801   0.0517  78.7824 0002214 110.3743 313.6102  1.00272828  3140
JCSAT-18 (KACIFIC 1)    
1 44868U 19091A   20270.94241979 -.00000224  00000-0  00000+0 0  9994
2 44868   0.0228 287.2664 0000715 275.4257 292.7835  1.00270987  3142
ELEKTRO-L 3             
1 44903U 19095A   20271.50191983 -.00000120  00000-0  00000-0 0  9996
2 44903   0.0817  86.7685 0001696 117.4565  59.2759  1.00271554  2788
SHIJIAN-20 (SJ-20)      
1 44910U 19097A   20271.72388963 -.00000377  00000-0  00000+0 0  9999
2 44910   0.4534  94.7164 0027656 147.9652 149.4109  1.00270207  2758
TJS-5                   
1 44978U 20002A   20271.46693721  .00000019  00000-0  00000+0 0  9995
2 44978   0.4118 281.3533 0002157 281.6310 150.2790  1.00272702  2747
GSAT-30                 
1 45026U 20005A   20271.50331560 -.00000188  00000-0  00000-0 0  9997
2 45026   0.0351  89.0320 0003710  14.6769 167.2481  1.00272220  2573
EUTELSAT KONNECT        
1 45027U 20005B   20271.34771521  .00000027  00000-0  00000-0 0  9996
2 45027   0.0259  98.7871 0000210  83.5409 316.6503  1.00272246  3391
JCSAT-17                
1 45245U 20013A   20270.56154676 -.00000336  00000-0  00000+0 0  9999
2 45245   6.7949 344.0069 0003964 200.3674 159.6020  1.00270826  2299
GEO-KOMPSAT-2B          
1 45246U 20013B   20271.48104758 -.00000367  00000-0  00000-0 0  9993
2 45246   0.0424 331.9616 0001599 255.5263  80.6825  1.00271791  2317
BEIDOU-3 G2             
1 45344U 20017A   20271.35911476 -.00000164  00000-0  00000-0 0  9990
2 45344   2.8048 330.1501 0002465 195.3173  50.4043  1.00270655  2311
